CCSDS_OMM_VERS = 2.0
CREATION_DATE  = 
ORIGINATOR     = 

OBJECT_NAME    = ATLAS CENTAUR R/B
OBJECT_ID      = 1972-065B
CENTER_NAME    = EARTH
REF_FRAME      = TEME
TIME_SYSTEM    = UTC
MEAN_ELEMENT_THEORY = SGP/SGP4

EPOCH          = 2026-03-02T11:07:49.161216
MEAN_MOTION    = 14.77663257
ECCENTRICITY   = .0034291
INCLINATION    = 35.0029
RA_OF_ASC_NODE = 348.0992
ARG_OF_PERICENTER = 308.4806
MEAN_ANOMALY   = 51.2821

EPHEMERIS_TYPE = 0
CLASSIFICATION_TYPE = U
NORAD_CAT_ID   = 6155
ELEMENT_SET_NO = 999
REV_AT_EPOCH   = 84019
BSTAR          = .2383879E-3
MEAN_MOTION_DOT = .1728E-4
MEAN_MOTION_DDOT = 0

CCSDS_OMM_VERS = 2.0
CREATION_DATE  = 
ORIGINATOR     = 

OBJECT_NAME    = SL-8 R/B
OBJECT_ID      = 1975-112B
CENTER_NAME    = EARTH
REF_FRAME      = TEME
TIME_SYSTEM    = UTC
MEAN_ELEMENT_THEORY = SGP/SGP4

EPOCH          = 2026-03-02T14:48:02.958624
MEAN_MOTION    = 14.38198646
ECCENTRICITY   = .0014599
INCLINATION    = 74.0613
RA_OF_ASC_NODE = 31.9223
ARG_OF_PERICENTER = 128.0023
MEAN_ANOMALY   = 232.2452

EPHEMERIS_TYPE = 0
CLASSIFICATION_TYPE = U
NORAD_CAT_ID   = 8459
ELEMENT_SET_NO = 999
REV_AT_EPOCH   = 63085
BSTAR          = .9519E-4
MEAN_MOTION_DOT = .263E-5
MEAN_MOTION_DDOT = 0

CCSDS_OMM_VERS = 2.0
CREATION_DATE  = 
ORIGINATOR     = 

OBJECT_NAME    = SL-3 R/B
OBJECT_ID      = 1977-057B
CENTER_NAME    = EARTH
REF_FRAME      = TEME
TIME_SYSTEM    = UTC
MEAN_ELEMENT_THEORY = SGP/SGP4

EPOCH          = 2026-03-02T18:58:28.886304
MEAN_MOTION    = 15.45259759
ECCENTRICITY   = .000644
INCLINATION    = 97.5755
RA_OF_ASC_NODE = 233.4093
ARG_OF_PERICENTER = 313.8244
MEAN_ANOMALY   = 46.2472

EPHEMERIS_TYPE = 0
CLASSIFICATION_TYPE = U
NORAD_CAT_ID   = 10114
ELEMENT_SET_NO = 999
REV_AT_EPOCH   = 66726
BSTAR          = .31826E-3
MEAN_MOTION_DOT = .15064E-3
MEAN_MOTION_DDOT = 0

CCSDS_OMM_VERS = 2.0
CREATION_DATE  = 
ORIGINATOR     = 

OBJECT_NAME    = SEASAT 1
OBJECT_ID      = 1978-064A
CENTER_NAME    = EARTH
REF_FRAME      = TEME
TIME_SYSTEM    = UTC
MEAN_ELEMENT_THEORY = SGP/SGP4

EPOCH          = 2026-03-02T18:52:24.688704
MEAN_MOTION    = 14.46154031
ECCENTRICITY   = .0002146
INCLINATION    = 108.0127
RA_OF_ASC_NODE = 111.0138
ARG_OF_PERICENTER = 288.3510
MEAN_ANOMALY   = 71.7402

EPHEMERIS_TYPE = 0
CLASSIFICATION_TYPE = U
NORAD_CAT_ID   = 10967
ELEMENT_SET_NO = 999
REV_AT_EPOCH   = 50551
BSTAR          = .12011E-3
MEAN_MOTION_DOT = .292E-5
MEAN_MOTION_DDOT = 0

CCSDS_OMM_VERS = 2.0
CREATION_DATE  = 
ORIGINATOR     = 

OBJECT_NAME    = SL-14 R/B
OBJECT_ID      = 1979-011B
CENTER_NAME    = EARTH
REF_FRAME      = TEME
TIME_SYSTEM    = UTC
MEAN_ELEMENT_THEORY = SGP/SGP4

EPOCH          = 2026-03-02T14:31:28.483392
MEAN_MOTION    = 14.91898251
ECCENTRICITY   = .0017629
INCLINATION    = 82.5216
RA_OF_ASC_NODE = 103.2948
ARG_OF_PERICENTER = 82.2454
MEAN_ANOMALY   = 278.0767

EPHEMERIS_TYPE = 0
CLASSIFICATION_TYPE = U
NORAD_CAT_ID   = 11267
ELEMENT_SET_NO = 999
REV_AT_EPOCH   = 52772
BSTAR          = .62542E-4
MEAN_MOTION_DOT = .66E-5
MEAN_MOTION_DDOT = 0

CCSDS_OMM_VERS = 2.0
CREATION_DATE  = 
ORIGINATOR     = 

OBJECT_NAME    = SL-8 R/B
OBJECT_ID      = 1979-089B
CENTER_NAME    = EARTH
REF_FRAME      = TEME
TIME_SYSTEM    = UTC
MEAN_ELEMENT_THEORY = SGP/SGP4

EPOCH          = 2026-03-02T12:46:14.990880
MEAN_MOTION    = 14.42345054
ECCENTRICITY   = .0017104
INCLINATION    = 74.0673
RA_OF_ASC_NODE = 104.2945
ARG_OF_PERICENTER = 277.6823
MEAN_ANOMALY   = 82.2391

EPHEMERIS_TYPE = 0
CLASSIFICATION_TYPE = U
NORAD_CAT_ID   = 11574
ELEMENT_SET_NO = 999
REV_AT_EPOCH   = 43507
BSTAR          = .94139E-4
MEAN_MOTION_DOT = .285E-5
MEAN_MOTION_DDOT = 0

CCSDS_OMM_VERS = 2.0
CREATION_DATE  = 
ORIGINATOR     = 

OBJECT_NAME    = SL-14 R/B
OBJECT_ID      = 1980-005B
CENTER_NAME    = EARTH
REF_FRAME      = TEME
TIME_SYSTEM    = UTC
MEAN_ELEMENT_THEORY = SGP/SGP4

EPOCH          = 2026-03-02T17:56:48.384672
MEAN_MOTION    = 14.90920563
ECCENTRICITY   = .0015567
INCLINATION    = 82.5157
RA_OF_ASC_NODE = 313.8205
ARG_OF_PERICENTER = 180.9466
MEAN_ANOMALY   = 179.1727

EPHEMERIS_TYPE = 0
CLASSIFICATION_TYPE = U
NORAD_CAT_ID   = 11672
ELEMENT_SET_NO = 999
REV_AT_EPOCH   = 47545
BSTAR          = .69342E-4
MEAN_MOTION_DOT = .71E-5
MEAN_MOTION_DDOT = 0

CCSDS_OMM_VERS = 2.0
CREATION_DATE  = 
ORIGINATOR     = 

OBJECT_NAME    = SL-8 R/B
OBJECT_ID      = 1981-003B
CENTER_NAME    = EARTH
REF_FRAME      = TEME
TIME_SYSTEM    = UTC
MEAN_ELEMENT_THEORY = SGP/SGP4

EPOCH          = 2026-03-02T17:09:38.607552
MEAN_MOTION    = 15.10656978
ECCENTRICITY   = .0262736
INCLINATION    = 82.9395
RA_OF_ASC_NODE = 296.4730
ARG_OF_PERICENTER = 202.8612
MEAN_ANOMALY   = 156.0754

EPHEMERIS_TYPE = 0
CLASSIFICATION_TYPE = U
NORAD_CAT_ID   = 12139
ELEMENT_SET_NO = 999
REV_AT_EPOCH   = 31362
BSTAR          = .51315E-3
MEAN_MOTION_DOT = .19842E-3
MEAN_MOTION_DDOT = 0

CCSDS_OMM_VERS = 2.0
CREATION_DATE  = 
ORIGINATOR     = 

OBJECT_NAME    = SL-3 R/B
OBJECT_ID      = 1981-046B
CENTER_NAME    = EARTH
REF_FRAME      = TEME
TIME_SYSTEM    = UTC
MEAN_ELEMENT_THEORY = SGP/SGP4

EPOCH          = 2026-03-02T18:36:59.202144
MEAN_MOTION    = 15.41779847
ECCENTRICITY   = .0020138
INCLINATION    = 81.2313
RA_OF_ASC_NODE = 298.0461
ARG_OF_PERICENTER = 45.6598
MEAN_ANOMALY   = 314.6290

EPHEMERIS_TYPE = 0
CLASSIFICATION_TYPE = U
NORAD_CAT_ID   = 12465
ELEMENT_SET_NO = 999
REV_AT_EPOCH   = 43736
BSTAR          = .33057E-3
MEAN_MOTION_DOT = .14125E-3
MEAN_MOTION_DDOT = 0

CCSDS_OMM_VERS = 2.0
CREATION_DATE  = 
ORIGINATOR     = 

OBJECT_NAME    = SL-3 R/B
OBJECT_ID      = 1981-103B
CENTER_NAME    = EARTH
REF_FRAME      = TEME
TIME_SYSTEM    = UTC
MEAN_ELEMENT_THEORY = SGP/SGP4

EPOCH          = 2026-03-02T19:12:35.003232
MEAN_MOTION    = 15.21271025
ECCENTRICITY   = .0012564
INCLINATION    = 81.1567
RA_OF_ASC_NODE = 221.5134
ARG_OF_PERICENTER = 311.8549
MEAN_ANOMALY   = 48.1609

EPHEMERIS_TYPE = 0
CLASSIFICATION_TYPE = U
NORAD_CAT_ID   = 12904
ELEMENT_SET_NO = 999
REV_AT_EPOCH   = 97218
BSTAR          = .30166E-3
MEAN_MOTION_DOT = .678E-4
MEAN_MOTION_DDOT = 0

CCSDS_OMM_VERS = 2.0
CREATION_DATE  = 
ORIGINATOR     = 

OBJECT_NAME    = SL-3 R/B
OBJECT_ID      = 1982-013B
CENTER_NAME    = EARTH
REF_FRAME      = TEME
TIME_SYSTEM    = UTC
MEAN_ELEMENT_THEORY = SGP/SGP4

EPOCH          = 2026-03-02T17:53:42.908064
MEAN_MOTION    = 15.21929234
ECCENTRICITY   = .0022289
INCLINATION    = 81.1771
RA_OF_ASC_NODE = 168.9071
ARG_OF_PERICENTER = 201.0884
MEAN_ANOMALY   = 158.9432

EPHEMERIS_TYPE = 0
CLASSIFICATION_TYPE = U
NORAD_CAT_ID   = 13068
ELEMENT_SET_NO = 999
REV_AT_EPOCH   = 40329
BSTAR          = .24637E-3
MEAN_MOTION_DOT = .5676E-4
MEAN_MOTION_DDOT = 0

CCSDS_OMM_VERS = 2.0
CREATION_DATE  = 
ORIGINATOR     = 

OBJECT_NAME    = SL-3 R/B
OBJECT_ID      = 1982-039B
CENTER_NAME    = EARTH
REF_FRAME      = TEME
TIME_SYSTEM    = UTC
MEAN_ELEMENT_THEORY = SGP/SGP4

EPOCH          = 2026-03-02T18:22:17.276736
MEAN_MOTION    = 15.10031044
ECCENTRICITY   = .0029903
INCLINATION    = 81.1579
RA_OF_ASC_NODE = 223.9447
ARG_OF_PERICENTER = 347.0452
MEAN_ANOMALY   = 13.0001

EPHEMERIS_TYPE = 0
CLASSIFICATION_TYPE = U
NORAD_CAT_ID   = 13154
ELEMENT_SET_NO = 999
REV_AT_EPOCH   = 38059
BSTAR          = .20157E-3
MEAN_MOTION_DOT = .3334E-4
MEAN_MOTION_DDOT = 0

